[{"OBJECT_NAME":"CHUANGXIN 1-03 (CX-1-03)","OBJECT_ID":"2011-068A","EPOCH":"2026-03-09T23:48:05.343264","MEAN_MOTION":14.30514213,"ECCENTRICITY":0.00158467,"INCLINATION":98.7066,"RA_OF_ASC_NODE":86.521,"ARG_OF_PERICENTER":50.1728,"MEAN_ANOMALY":9.9604,"EPHEMERIS_TYPE":0,"CLASSIFICATION_TYPE":"U","NORAD_CAT_ID":37930,"ELEMENT_SET_NO":999,"REV_AT_EPOCH":74647,"BSTAR":-1.9220958e-5,"MEAN_MOTION_DOT":-9.5e-7,"MEAN_MOTION_DDOT":0},{"OBJECT_NAME":"CZ-6A DEB","OBJECT_ID":"2022-151ADM","EPOCH":"2026-03-09T20:03:34.066944","MEAN_MOTION":13.95000667,"ECCENTRICITY":0.02029847,"INCLINATION":98.9025,"RA_OF_ASC_NODE":36.649,"ARG_OF_PERICENTER":321.7213,"MEAN_ANOMALY":36.9684,"EPHEMERIS_TYPE":0,"CLASSIFICATION_TYPE":"U","NORAD_CAT_ID":56589,"ELEMENT_SET_NO":999,"REV_AT_EPOCH":15075,"BSTAR":0.0028748062,"MEAN_MOTION_DOT":4.553e-5,"MEAN_MOTION_DDOT":0}]
